0 NSS 12
1 36032U 09058A   13282.99762947  .00000000  00000-0  10000-3 0  7593
2 36032 000.0390 054.4575 0002539 155.7484 224.7239 01.00270349 10850
0 NSS 12
1 36032U 09058A   13287.66873635  .00000046  00000-0  10000-3 0  7601
2 36032 000.0550 045.1415 0002618 140.0093 135.9884 01.00273620 14532
0 NSS 12
1 36032U 09058A   13290.87795564  .00000050  00000-0  10000-3 0  7618
2 36032 000.0162 296.3856 0003211 260.3818 202.8400 01.00272146 14575
0 NSS 12
1 36032U 09058A   13292.91186369  .00000054  00000-0  10000-3 0  7627
2 36032 000.0121 301.9057 0003027 252.1672 219.7499 01.00272778 14596
0 NSS 12
1 36032U 09058A   13293.92150067  .00000056  00000-0  10000-3 0  7638
2 36032 000.0107 303.7784 0002987 248.1528 226.3627 01.00273244 14604
0 NSS 12
1 36032U 09058A   13294.93446675  .00000057  00000-0  10000-3 0  7645
2 36032 000.0093 305.7760 0002979 245.6828 232.5082 01.00273644 14619
